*******************************************************************************
Ephemeris / WWW_USER Mon Mar 24 07:38:05 2025 Pasadena, USA      / Horizons    
*******************************************************************************
Target body name: (2018 RY7)                      {source: JPL#20}
Center body name: Earth (399)                     {source: DE441}
Center-site name: Mauna Kea
*******************************************************************************
Start time      : A.D. 2018-Nov-15 03:52:00.0000 UT      
Stop  time      : A.D. 2018-Nov-15 16:20:00.0000 UT      
Step-size       : 1 minutes
*******************************************************************************
Target pole/equ : undefined
Target radii    : undefined                                                    
Center geodetic : 204.5278, 19.8260847, 4.21024   {E-lon(deg),Lat(deg),Alt(km)}
Center cylindric: 204.5278, 6006.35451, 2151.0229 {E-lon(deg),Dxy(km),Dz(km)}
Center pole/equ : ITRF93                          {East-longitude positive}
Center radii    : 6378.137, 6378.137, 6356.752 km {Equator_a, b, pole_c}       
Target primary  : Sun
Vis. interferer : MOON (R_eq= 1737.400) km        {source: DE441}
Rel. light bend : Sun                             {source: DE441}
Rel. lght bnd GM: 1.3271E+11 km^3/s^2                                          
Small-body perts: Yes                             {source: SB441-N16}
Atmos refraction: NO (AIRLESS)
RA format       : HMS
Time format     : CAL 
Calendar mode   : Mixed Julian/Gregorian
RTS-only print  : NO       
EOP file        : eop.250321.p250617                                           
EOP coverage    : DATA-BASED 1962-JAN-20 TO 2025-MAR-21. PREDICTS-> 2025-JUN-16
Units conversion: 1 au= 149597870.700 km, c= 299792.458 km/s, 1 day= 86400.0 s 
Table cut-offs 1: Elevation (-90.0deg=NO ),Airmass (>38.000=NO), Daylight (YES)
Table cut-offs 2: Solar elongation (  0.0,180.0=NO ),Local Hour Angle( 0.0=NO )
Table cut-offs 3: RA/DEC angular rate (     0.0=NO )                           
*******************************************************************************
Initial IAU76/J2000 heliocentric ecliptic osculating elements (au, days, deg.):
  EPOCH=  2458422.5 ! 2018-Oct-31.00 (TDB)         Residual RMS= .22459        
   EC= .1470549687381346   QR= .8667733479166969   TP= 2458516.8896767548      
   OM= 2.838668085760325   W=  136.9006026425241   IN= 13.35135890147074       
  Equivalent ICRF heliocentric cartesian coordinates (au, au/d):
   X= 8.791791513870114E-01  Y= 4.508422091141234E-01  Z= 3.244113040133835E-01
  VX=-1.085418916943652E-02 VY= 1.006005810562689E-02 VZ= 7.673980932675997E-03
Asteroid physical parameters (km, seconds, rotational period in hours):        
   GM= n.a.                RAD= n.a.               ROTPER= n.a.                
   H= 24.4                 G= .150                 B-V= n.a.                   
                           ALBEDO= n.a.            STYP= n.a.                  
*******************************************************************************
 Date__(UT)__HR:MN     R.A._________(ICRF)_________DEC
******************************************************
$$SOE
 2018-Nov-15 07:58  m  20 12 21.288835 +36 40 54.07738
 2018-Nov-15 07:59  m  20 12 21.216800 +36 40 54.53695
 2018-Nov-15 08:00  m  20 12 21.144831 +36 40 54.99639
 2018-Nov-15 08:01  m  20 12 21.072928 +36 40 55.45570
 2018-Nov-15 08:02  m  20 12 21.001092 +36 40 55.91488
 2018-Nov-15 08:03  m  20 12 20.929322 +36 40 56.37394
 2018-Nov-15 08:04  m  20 12 20.857618 +36 40 56.83287
 2018-Nov-15 08:05  m  20 12 20.785980 +36 40 57.29169
 2018-Nov-15 08:06  m  20 12 20.714409 +36 40 57.75039
 2018-Nov-15 08:07  m  20 12 20.642905 +36 40 58.20897
 2018-Nov-15 08:08  m  20 12 20.571467 +36 40 58.66744
 2018-Nov-15 08:09  m  20 12 20.500096 +36 40 59.12579
 2018-Nov-15 08:10  m  20 12 20.428792 +36 40 59.58404
 2018-Nov-15 08:11  m  20 12 20.357554 +36 41 00.04218
 2018-Nov-15 08:12  m  20 12 20.286384 +36 41 00.50021
 2018-Nov-15 08:13  m  20 12 20.215280 +36 41 00.95814
 2018-Nov-15 08:14  m  20 12 20.144243 +36 41 01.41597
 2018-Nov-15 08:15  m  20 12 20.073273 +36 41 01.87370
 2018-Nov-15 08:16  m  20 12 20.002371 +36 41 02.33133
 2018-Nov-15 08:17  m  20 12 19.931535 +36 41 02.78886
 2018-Nov-15 08:18  m  20 12 19.860767 +36 41 03.24630
 2018-Nov-15 08:19  m  20 12 19.790066 +36 41 03.70365
 2018-Nov-15 08:20  m  20 12 19.719432 +36 41 04.16092
 2018-Nov-15 08:21  m  20 12 19.648865 +36 41 04.61809
 2018-Nov-15 08:22  m  20 12 19.578366 +36 41 05.07518
 2018-Nov-15 08:23  m  20 12 19.507935 +36 41 05.53219
 2018-Nov-15 08:24  m  20 12 19.437570 +36 41 05.98911
 2018-Nov-15 08:25  m  20 12 19.367274 +36 41 06.44596
 2018-Nov-15 08:26  m  20 12 19.297045 +36 41 06.90273
 2018-Nov-15 08:27  m  20 12 19.226883 +36 41 07.35943
 2018-Nov-15 08:28  m  20 12 19.156789 +36 41 07.81605
 2018-Nov-15 08:29  m  20 12 19.086763 +36 41 08.27261
 2018-Nov-15 08:30  m  20 12 19.016804 +36 41 08.72909
 2018-Nov-15 08:31  m  20 12 18.946913 +36 41 09.18551
 2018-Nov-15 08:32  m  20 12 18.877090 +36 41 09.64187
 2018-Nov-15 08:33  m  20 12 18.807335 +36 41 10.09816
 2018-Nov-15 08:34  m  20 12 18.737648 +36 41 10.55439
 2018-Nov-15 08:35  m  20 12 18.668028 +36 41 11.01057
 2018-Nov-15 08:36  m  20 12 18.598477 +36 41 11.46669
 2018-Nov-15 08:37  m  20 12 18.528993 +36 41 11.92276
 2018-Nov-15 08:38  m  20 12 18.459577 +36 41 12.37877
 2018-Nov-15 08:39  m  20 12 18.390229 +36 41 12.83474
 2018-Nov-15 08:40  m  20 12 18.320949 +36 41 13.29066
 2018-Nov-15 08:41  m  20 12 18.251737 +36 41 13.74653
 2018-Nov-15 08:42  m  20 12 18.182594 +36 41 14.20236
 2018-Nov-15 08:43  m  20 12 18.113518 +36 41 14.65815
 2018-Nov-15 08:44  m  20 12 18.044510 +36 41 15.11391
 2018-Nov-15 08:45  m  20 12 17.975570 +36 41 15.56962
 2018-Nov-15 08:46  m  20 12 17.906699 +36 41 16.02530
 2018-Nov-15 08:47  m  20 12 17.837896 +36 41 16.48095
 2018-Nov-15 08:48  m  20 12 17.769160 +36 41 16.93657
 2018-Nov-15 08:49  m  20 12 17.700493 +36 41 17.39216
 2018-Nov-15 08:50  m  20 12 17.631894 +36 41 17.84772
 2018-Nov-15 08:51  m  20 12 17.563363 +36 41 18.30326
 2018-Nov-15 08:52  m  20 12 17.494901 +36 41 18.75878
 2018-Nov-15 08:53  m  20 12 17.426506 +36 41 19.21428
 2018-Nov-15 08:54  m  20 12 17.358180 +36 41 19.66976
 2018-Nov-15 08:55  m  20 12 17.289922 +36 41 20.12522
 2018-Nov-15 08:56  m  20 12 17.221732 +36 41 20.58067
 2018-Nov-15 08:57  m  20 12 17.153610 +36 41 21.03611
 2018-Nov-15 08:58  m  20 12 17.085556 +36 41 21.49154
 2018-Nov-15 08:59  m  20 12 17.017571 +36 41 21.94697
 2018-Nov-15 09:00  m  20 12 16.949654 +36 41 22.40239
 2018-Nov-15 09:01  m  20 12 16.881805 +36 41 22.85780
 2018-Nov-15 09:02  m  20 12 16.814024 +36 41 23.31322
 2018-Nov-15 09:03  m  20 12 16.746311 +36 41 23.76863
 2018-Nov-15 09:04  m  20 12 16.678666 +36 41 24.22405
 2018-Nov-15 09:05  m  20 12 16.611090 +36 41 24.67948
 2018-Nov-15 09:06  m  20 12 16.543582 +36 41 25.13491
 2018-Nov-15 09:07  m  20 12 16.476141 +36 41 25.59036
 2018-Nov-15 09:08  m  20 12 16.408769 +36 41 26.04581
 2018-Nov-15 09:09  m  20 12 16.341465 +36 41 26.50128
 2018-Nov-15 09:10  m  20 12 16.274230 +36 41 26.95677
 2018-Nov-15 09:11  m  20 12 16.207062 +36 41 27.41227
 2018-Nov-15 09:12  m  20 12 16.139962 +36 41 27.86780
 2018-Nov-15 09:13  m  20 12 16.072930 +36 41 28.32334
 2018-Nov-15 09:14  m  20 12 16.005966 +36 41 28.77891
 2018-Nov-15 09:15  m  20 12 15.939071 +36 41 29.23451
 2018-Nov-15 09:16  m  20 12 15.872243 +36 41 29.69014
 2018-Nov-15 09:17  m  20 12 15.805483 +36 41 30.14580
 2018-Nov-15 09:18  m  20 12 15.738791 +36 41 30.60149
 2018-Nov-15 09:19  m  20 12 15.672167 +36 41 31.05721
 2018-Nov-15 09:20  m  20 12 15.605611 +36 41 31.51298
 2018-Nov-15 09:21  m  20 12 15.539122 +36 41 31.96878
 2018-Nov-15 09:22  m  20 12 15.472702 +36 41 32.42462
 2018-Nov-15 09:23  m  20 12 15.406349 +36 41 32.88051
 2018-Nov-15 09:24  m  20 12 15.340064 +36 41 33.33644
 2018-Nov-15 09:25  m  20 12 15.273846 +36 41 33.79242
 2018-Nov-15 09:26  m  20 12 15.207697 +36 41 34.24845
 2018-Nov-15 09:27  m  20 12 15.141614 +36 41 34.70454
 2018-Nov-15 09:28  m  20 12 15.075600 +36 41 35.16067
 2018-Nov-15 09:29  m  20 12 15.009653 +36 41 35.61687
 2018-Nov-15 09:30  m  20 12 14.943773 +36 41 36.07312
 2018-Nov-15 09:31  m  20 12 14.877961 +36 41 36.52943
 2018-Nov-15 09:32  m  20 12 14.812217 +36 41 36.98580
 2018-Nov-15 09:33  m  20 12 14.746539 +36 41 37.44224
 2018-Nov-15 09:34  m  20 12 14.680929 +36 41 37.89874
 2018-Nov-15 09:35  m  20 12 14.615387 +36 41 38.35532
 2018-Nov-15 09:36  m  20 12 14.549911 +36 41 38.81196
 2018-Nov-15 09:37  m  20 12 14.484503 +36 41 39.26868
 2018-Nov-15 09:38  m  20 12 14.419162 +36 41 39.72547
 2018-Nov-15 09:39  m  20 12 14.353888 +36 41 40.18234
 2018-Nov-15 09:40  m  20 12 14.288681 +36 41 40.63928
 2018-Nov-15 09:41  m  20 12 14.223541 +36 41 41.09631
 2018-Nov-15 09:42  m  20 12 14.158468 +36 41 41.55342
 2018-Nov-15 09:43  m  20 12 14.093461 +36 41 42.01062
 2018-Nov-15 09:44  m  20 12 14.028522 +36 41 42.46791
 2018-Nov-15 09:45  m  20 12 13.963649 +36 41 42.92528
 2018-Nov-15 09:46  m  20 12 13.898843 +36 41 43.38274
 2018-Nov-15 09:47  m  20 12 13.834103 +36 41 43.84030
 2018-Nov-15 09:48  m  20 12 13.769430 +36 41 44.29796
 2018-Nov-15 09:49  m  20 12 13.704824 +36 41 44.75571
 2018-Nov-15 09:50  m  20 12 13.640284 +36 41 45.21356
 2018-Nov-15 09:51  m  20 12 13.575810 +36 41 45.67152
 2018-Nov-15 09:52  m  20 12 13.511402 +36 41 46.12957
 2018-Nov-15 09:53  m  20 12 13.447061 +36 41 46.58774
 2018-Nov-15 09:54  m  20 12 13.382786 +36 41 47.04601
 2018-Nov-15 09:55  m  20 12 13.318577 +36 41 47.50439
 2018-Nov-15 09:56  m  20 12 13.254434 +36 41 47.96288
 2018-Nov-15 09:57  m  20 12 13.190357 +36 41 48.42149
 2018-Nov-15 09:58  m  20 12 13.126345 +36 41 48.88021
 2018-Nov-15 09:59  m  20 12 13.062400 +36 41 49.33905
 2018-Nov-15 10:00  m  20 12 12.998520 +36 41 49.79802
